STAR ONE C4             
1 40733U 15034B   25040.52759307 -.00000274  00000+0  00000+0 0  9991
2 40733   0.0323  53.7952 0002759 280.8750 285.0902  1.00271054 35072
WGS F7 (USA 263)        
1 40746U 15036A   25040.52577190  .00000013  00000+0  00000+0 0  9995
2 40746   0.0148  96.4682 0002727 156.2342 251.4496  1.00298358 34938
INTELSAT 34 (IS-34)     
1 40874U 15039A   25040.53042743 -.00000295  00000+0  00000+0 0  9995
2 40874   0.0277 100.0004 0000490 125.8036  49.5280  1.00269087 34686
EUTELSAT 8 WEST B       
1 40875U 15039B   25040.32550909 -.00000075  00000+0  00000+0 0  9997
2 40875   0.0667 355.6227 0003761 324.6165 288.5793  1.00271515 34707
GSAT-6                  
1 40880U 15041A   25040.57935326 -.00000171  00000+0  00000+0 0  9990
2 40880   0.6420  89.6814 0003027 234.4614 106.8493  1.00271652 34659
INMARSAT 5-F3           
1 40882U 15042A   25040.52886809  .00000043  00000+0  00000+0 0  9996
2 40882   0.0258  80.1755 0001336 187.4873 242.1458  1.00287425 34626
MUOS-4                  
1 40887U 15044A   25040.55640469 -.00000103  00000+0  00000+0 0  9994
2 40887   3.4581  36.9250 0056039 355.7424  22.5176  1.00271499 34629
TJS-1                   
1 40892U 15046A   25040.41108586 -.00000166  00000+0  00000+0 0  9995
2 40892   0.0297 119.6851 0005020 225.3738  97.6689  1.00272635 34616
EXPRESS-AM8             
1 40895U 15048A   25039.89489152 -.00000120  00000+0  00000+0 0  9991
2 40895   0.0112 101.2987 0000340 160.1372 185.9189  1.00270644 34436
BEIDOU-3S IGSO-2S       
1 40938U 15053A   25040.58261148 -.00000061  00000+0  00000+0 0  9990
2 40938  49.9842 264.6179 0052191 186.7584 350.9708  1.00252087 34402
SKY MUSTER 1 (NBN1A)    
1 40940U 15054A   25040.35496156 -.00000289  00000+0  00000+0 0  9990
2 40940   0.0071  77.9081 0001993 237.1398  92.6445  1.00269977 34316
ARSAT 2                 
1 40941U 15054B   25040.52542105 -.00000234  00000+0  00000+0 0  9996
2 40941   0.0437 283.2611 0002011  24.9596 299.7589  1.00271137 34374
MORELOS 3               
1 40946U 15056A   25040.52012954 -.00000048  00000+0  00000+0 0  9990
2 40946   2.9715 359.9244 0002802   3.2607 210.7848  1.00272190 34341
APSTAR-9                
1 40982U 15059A   25040.63497554 -.00000276  00000+0  00000+0 0  9991
2 40982   0.0317 320.7558 0002103 338.6773 211.0933  1.00273308 34188
TURKSAT 4B              
1 40984U 15060A   25040.55136562  .00000105  00000+0  00000+0 0  9995
2 40984   0.0115  84.8567 0001756 240.0552  63.3876  1.00272700 34154
ZHONGXING-2C            
1 41021U 15063A   25040.58774446 -.00000333  00000+0  00000+0 0  9997
2 41021   0.0735 107.7298 0000626  62.2000 284.9424  1.00268159 34050
GSAT-15                 
1 41028U 15065A   25040.58271902 -.00000268  00000+0  00000+0 0  9992
2 41028   0.0674 271.3030 0001504  31.6341 140.2218  1.00271063 33855
BADR-7 (ARABSAT-6B)     
1 41029U 15065B   25040.54658720  .00000135  00000+0  00000+0 0  9998
2 41029   0.0271 181.2010 0003901  78.0765 103.3238  1.00272939 33972
LAOSAT 1                
1 41034U 15067A   25040.57248502 -.00000353  00000+0  00000+0 0  9995
2 41034   0.0552 283.8670 0001962   5.1699 185.4367  1.00270180 33928
TELSTAR 12V             
1 41036U 15068A   25040.39562163 -.00000128  00000+0  00000+0 0  9990
2 41036   0.0249 103.7576 0002581 220.1568 303.2459  1.00269784 33683
ELEKTRO-L 2             
1 41105U 15074A   25040.39570851 -.00000129  00000+0  00000+0 0  9998
2 41105   5.4466  76.5942 0003887 213.7206 337.3270  1.00270397 33569
COSMOS 2513             
1 41121U 15075A   25040.61263086 -.00000149  00000+0  00000+0 0  9993
2 41121   0.0449 105.7867 0002455 225.3229 109.5973  1.00275997 33597
EXPRESS-AMU1            
1 41191U 15082A   25040.54867233  .00000146  00000+0  00000+0 0  9990
2 41191   0.0143  92.3594 0002658 214.8058  66.2859  1.00272600 33322
GAOFEN-4                
1 41194U 15083A   25040.64292630 -.00000344  00000+0  00000+0 0  9999
2 41194   0.3000  85.2715 0002079 249.1337 142.6553  1.00267722 33592
BELINTERSAT-1           
1 41238U 16001A   25040.19445880  .00000097  00000+0  00000+0 0  9990
2 41238   0.0488 285.3823 0002147 333.6735   1.9584  1.00274678 33294
IRNSS-1E                
1 41241U 16003A   25018.55927074 -.00000299  00000+0  00000+0 0  9996
2 41241  32.1202  70.2723 0021289 190.9048 170.0441  1.00267868 32929
EUTELSAT 9B             
1 41310U 16005A   25040.54311198  .00000051  00000+0  00000+0 0  9998
2 41310   0.0261  60.1277 0004909 241.8829  42.3400  1.00270373 33179
SES-9                   
1 41380U 16013A   25040.62249580 -.00000355  00000+0  00000+0 0  9996
2 41380   0.0522 278.1808 0001138  96.1400  97.9927  1.00270030 32500
EUTELSAT 65 WEST A      
1 41382U 16014A   25040.45704612 -.00000285  00000+0  00000+0 0  9994
2 41382   0.0589 329.2641 0002424 351.2617 278.5696  1.00269917 32593
IRNSS-1F                
1 41384U 16015A   25038.26193836  .00000151  00000+0  00000+0 0  9994
2 41384   4.1221 109.8873 0027128 193.0393 321.5424  1.00277155 32707
BEIDOU-2 IGSO-6         
1 41434U 16021A   25036.73930689 -.00000145  00000+0  00000+0 0  9996
2 41434  59.5237  42.9930 0054598 229.4681 226.3639  1.00268793 32506
IRNSS-1G                
1 41469U 16027A   25040.57239265 -.00000348  00000+0  00000+0 0  9994
2 41469   3.9931 110.8160 0005087 320.9120  43.6967  1.00276038 32248
JCSAT-2B                
1 41471U 16028A   25040.59745449 -.00000175  00000+0  00000+0 0  9994
2 41471   0.0149  92.4745 0001246 210.6317 205.8749  1.00274417 32182
THAICOM 8               
1 41552U 16031A   25040.61189275 -.00000131  00000+0  00000+0 0  9992
2 41552   0.0731  56.3532 0004668 274.5508 107.8143  1.00272297 31771
INTELSAT 31 (IS-31)     
1 41581U 16035A   25039.09386184 -.00000156  00000+0  00000+0 0  9993
2 41581   0.0133 113.0930 0001923  79.6015 244.4452  1.00271798 31721
BEIDOU-2 G7             
1 41586U 16037A   25040.62314110 -.00000365  00000+0  00000+0 0  9993
2 41586   1.9498  68.1784 0008070 345.1499  61.3994  1.00276662  1958
ABS-2A (MONGOLSAT-1)    
1 41588U 16038A   25040.16225152 -.00000092  00000+0  00000+0 0  9999
2 41588   0.0102  97.3700 0002017 167.6311   7.5837  1.00270148 31762
EUTELSAT 117 WEST B     
1 41589U 16038B   25040.58418126 -.00000021  00000+0  00000+0 0  9993
2 41589   0.0115 230.4711 0000135 138.8898 223.8541  1.00272792 31726
BRISAT                  
1 41591U 16039A   25040.18655971 -.00000206  00000+0  00000+0 0  9999
2 41591   0.0111  99.2376 0002385 220.0693  37.8732  1.00270325 31667
ECHOSTAR 18             
1 41592U 16039B   25040.52921111 -.00000291  00000+0  00000+0 0  9994
2 41592   0.0146  89.4830 0001640 220.5705 318.9471  1.00269983 31687
MUOS-5                  
1 41622U 16041A   25040.52081638 -.00000158  00000+0  00000+0 0  9994
2 41622   3.3180 296.9030 0193976 258.8280  26.5239  1.00270952 32142
TIANTONG-1 1            
1 41725U 16048A   25040.58752940 -.00000328  00000+0  00000+0 0  9991
2 41725   2.9727  36.1463 0007119 309.2980 107.3354  1.00271253 31334
JCSAT-16                
1 41729U 16050A   25039.85562500 -.00000260  00000+0  00000+0 0  9992
2 41729   0.0176 101.5035 0000996 331.6647 157.9708  1.00270502 31118
INTELSAT 36 (IS-36)     
1 41747U 16053A   25040.55510148 -.00000034  00000+0  00000+0 0  9994
2 41747   0.0118  53.9245 0001476 260.9987  93.2720  1.00272855 31009
INSAT-3DR               
1 41752U 16054A   25040.55614405 -.00000087  00000+0  00000+0 0  9990
2 41752   0.0568  96.5238 0013292 181.3315 136.2061  1.00271335 30871
GSAT-18                 
1 41793U 16060A   25040.55614405 -.00000087  00000+0  00000+0 0  9992
2 41793   0.0003  98.0126 0002785 162.8172 153.2454  1.00271050 30580
SKY MUSTER 2 (NBN1B)    
1 41794U 16060B   25040.58968963 -.00000254  00000+0  00000+0 0  9993
2 41794   0.0068  92.5748 0001853 216.4445 187.9588  1.00274255 30587
HIMAWARI-9              
1 41836U 16064A   25040.57644975 -.00000285  00000+0  00000+0 0  9991
2 41836   0.0234 177.1254 0001163 156.4035 154.6520  1.00270730 30270
SHIJIAN-17 (SJ-17)      
1 41838U 16065A   25040.63151953  .00000052  00000+0  00000+0 0  9991
2 41838   4.4955  78.5818 0005732 235.6597 235.0198  1.00273583 30273
GOES 16                 
1 41866U 16071A   25040.52655050 -.00000258  00000+0  00000+0 0  9993
2 41866   0.0656 273.7126 0001812  66.8445 273.6348  1.00272045 30161
TIANLIAN 1-04           
1 41869U 16072A   25040.50509101  .00000021  00000+0  00000+0 0  9997
2 41869   0.4315  90.7009 0030163  77.1784 330.5397  1.00271869 30372
WGS F8 (USA 272)        
1 41879U 16075A   25040.18655971 -.00000212  00000+0  00000+0 0  9995
2 41879   0.0194  97.0248 0000192 212.9540  46.5025  1.00271173 29870
FENGYUN 4A              
1 41882U 16077A   25021.48357438 -.00000176  00000+0  00000+0 0  9999
2 41882   1.0146  85.6565 0011073 343.9543 311.7920  1.00265548 29796
ECHOSTAR 19             
1 41893U 16079A   25040.45079072 -.00000148  00000+0  00000+0 0  9995
2 41893   0.0134  98.3197 0001661 212.9421 253.6672  1.00272895 29766
JCSAT-110A (JCSAT-15)   
1 41903U 16082A   25040.56706332 -.00000360  00000+0  00000+0 0  9995
2 41903   0.0153 100.6312 0000808 207.1193 146.3262  1.00271453 29840
STAR ONE D1             
1 41904U 16082B   25040.52481288 -.00000220  00000+0  00000+0 0  9997
2 41904   0.0066  31.0417 0001974 283.8742 289.8498  1.00268988 29835
TJS-2                   
1 41911U 17001A   25040.55466708 -.00000015  00000+0  00000+0 0  9992
2 41911   0.4457 269.6930 0001814  73.3743  62.9192  1.00272075 29783
SBIRS GEO-4 (USA 273)   
1 41937U 17004A   25040.51725428  .00000041  00000+0  00000+0 0  9994
2 41937   1.5048  18.8090 0002803 290.2094 255.2238  0.99979197 29669
HISPASAT 36W-1          
1 41942U 17006A   25040.46286712 -.00000254  00000+0  00000+0 0  9991
2 41942   0.0181 333.9885 0000977 342.5762 313.8355  1.00270698 29274
